start=new Date('2021-11-03T00:00:00.000Z').valueOf();
sats=[{"REV_AT_EPOCH":"7686","CENTER_NAME":"EARTH","FILE":"3198350","SITE":"AFETR","GP_ID":"188771899","EPHEMERIS_TYPE":"0","OBJECT_ID":"2020-038B","OBJECT_NAME":"STARLINK-1465","INCLINATION":"53.0530","MEAN_MOTION_DOT":"0.00000455","COUNTRY_CODE":"US","CLASSIFICATION_TYPE":"U","BSTAR":"0.00004945300000","PERIOD":"95.592","DECAY_DATE":null,"APOAPSIS":"548.407","NORAD_CAT_ID":"45731","MEAN_MOTION":"15.06398496","ARG_OF_PERICENTER":"74.2986","REF_FRAME":"TEME","RCS_SIZE":"LARGE","RA_OF_ASC_NODE":"164.7873","LAUNCH_DATE":"2020-06-13","MEAN_ELEMENT_THEORY":"SGP4","MEAN_ANOMALY":"285.8192","TLE_LINE2":"2 45731  53.0530 164.7873 0001716  74.2986 285.8192 15.06398496 76868","MEAN_MOTION_DDOT":"0.0000000000000","PERIAPSIS":"546.030","SEMIMAJOR_AXIS":"6925.353","ECCENTRICITY":"0.00017160","ELEMENT_SET_NO":"999","TLE_LINE1":"1 45731U 20038B   21306.83454673  .00000455  00000-0  49453-4 0  9998","EPOCH":"2021-11-02T20:01:44.837472","OBJECT_TYPE":"PAYLOAD","TIME_SYSTEM":"UTC"},{"MEAN_ELEMENT_THEORY":"SGP4","MEAN_ANOMALY":"289.0227","MEAN_MOTION_DDOT":"0.0000000000000","TLE_LINE2":"2 45732  53.0534 164.5277 0001839  71.0961 289.0227 15.06409965 76873","LAUNCH_DATE":"2020-06-13","ELEMENT_SET_NO":"999","SEMIMAJOR_AXIS":"6925.318","ECCENTRICITY":"0.00018390","PERIAPSIS":"545.909","TLE_LINE1":"1 45732U 20038C   21306.88982630  .00000885  00000-0  78300-4 0  9993","EPOCH":"2021-11-02T21:21:20.992320","TIME_SYSTEM":"UTC","OBJECT_TYPE":"PAYLOAD","DECAY_DATE":null,"APOAPSIS":"548.457","NORAD_CAT_ID":"45732","MEAN_MOTION":"15.06409965","RA_OF_ASC_NODE":"164.5277","RCS_SIZE":"LARGE","REF_FRAME":"TEME","ARG_OF_PERICENTER":"71.0961","INCLINATION":"53.0534","MEAN_MOTION_DOT":"0.00000885","EPHEMERIS_TYPE":"0","OBJECT_ID":"2020-038C","OBJECT_NAME":"STARLINK-1466","COUNTRY_CODE":"US","CLASSIFICATION_TYPE":"U","PERIOD":"95.592","BSTAR":"0.00007830000000","FILE":"3198350","REV_AT_EPOCH":"7687","CENTER_NAME":"EARTH","SITE":"AFETR","GP_ID":"188772149"},{"LAUNCH_DATE":"2020-06-13","MEAN_ELEMENT_THEORY":"SGP4","MEAN_ANOMALY":"287.0171","TLE_LINE2":"2 45733  53.0540 168.3759 0001810  73.1017 287.0171 15.06336792 76741","MEAN_MOTION_DDOT":"0.0000000000000","PERIAPSIS":"546.154","SEMIMAJOR_AXIS":"6925.542","ELEMENT_SET_NO":"999","ECCENTRICITY":"0.00018100","TLE_LINE1":"1 45733U 20038D   21306.03471515  .00014398  00000-0  98520-3 0  9995","EPOCH":"2021-11-02T00:49:59.388960","OBJECT_TYPE":"PAYLOAD","TIME_SYSTEM":"UTC","DECAY_DATE":null,"APOAPSIS":"548.661","NORAD_CAT_ID":"45733","MEAN_MOTION":"15.06336792","ARG_OF_PERICENTER":"73.1017","REF_FRAME":"TEME","RA_OF_ASC_NODE":"168.3759","RCS_SIZE":"LARGE","EPHEMERIS_TYPE":"0","OBJECT_NAME":"STARLINK-1467","OBJECT_ID":"2020-038D","MEAN_MOTION_DOT":"0.00014398","INCLINATION":"53.0540","COUNTRY_CODE":"US","CLASSIFICATION_TYPE":"U","BSTAR":"0.00098520000000","PERIOD":"95.596","CENTER_NAME":"EARTH","REV_AT_EPOCH":"7674","FILE":"3197731","SITE":"AFETR","GP_ID":"188735680"},{"MEAN_MOTION":"15.06407714","RA_OF_ASC_NODE":"164.5749","RCS_SIZE":"LARGE","REF_FRAME":"TEME","ARG_OF_PERICENTER":"77.9666","DECAY_DATE":null,"APOAPSIS":"548.279","NORAD_CAT_ID":"45734","TLE_LINE1":"1 45734U 20038E   21306.87877177  .00002405  00000-0  18029-3 0  9994","TIME_SYSTEM":"UTC","OBJECT_TYPE":"PAYLOAD","EPOCH":"2021-11-02T21:05:25.880928","TLE_LINE2":"2 45734  53.0522 164.5749 0001572  77.9666 282.1499 15.06407714 76872","MEAN_MOTION_DDOT":"0.0000000000000","MEAN_ELEMENT_THEORY":"SGP4","MEAN_ANOMALY":"282.1499","LAUNCH_DATE":"2020-06-13","ECCENTRICITY":"0.00015720","SEMIMAJOR_AXIS":"6925.325","ELEMENT_SET_NO":"999","PERIAPSIS":"546.101","GP_ID":"188773151","FILE":"3198350","CENTER_NAME":"EARTH","REV_AT_EPOCH":"7687","SITE":"AFETR","CLASSIFICATION_TYPE":"U","PERIOD":"95.592","BSTAR":"0.00018029000000","INCLINATION":"53.0522","MEAN_MOTION_DOT":"0.00002405","OBJECT_ID":"2020-038E","OBJECT_NAME":"STARLINK-1468","EPHEMERIS_TYPE":"0","COUNTRY_CODE":"US"},{"EPHEMERIS_TYPE":"0","OBJECT_NAME":"STARLINK-1471","OBJECT_ID":"2020-038F","INCLINATION":"53.0540","MEAN_MOTION_DOT":"-0.00001569","COUNTRY_CODE":"US","CLASSIFICATION_TYPE":"U","BSTAR":"-0.00008650300000","PERIOD":"95.593","CENTER_NAME":"EARTH","REV_AT_EPOCH":"7687","FILE":"3198350","SITE":"AFETR","GP_ID":"188772399","LAUNCH_DATE":"2020-06-13","MEAN_ELEMENT_THEORY":"SGP4","MEAN_ANOMALY":"301.0835","TLE_LINE2":"2 45735  53.0540 164.4171 0001712  59.0322 301.0835 15.06389053 76877","MEAN_MOTION_DDOT":"0.0000000000000","PERIAPSIS":"546.061","SEMIMAJOR_AXIS":"6925.382","ELEMENT_SET_NO":"999","ECCENTRICITY":"0.00017120","TLE_LINE1":"1 45735U 20038F   21306.91564729 -.00001569  00000-0 -86503-4 0  9991","EPOCH":"2021-11-02T21:58:31.925856","TIME_SYSTEM":"UTC","OBJECT_TYPE":"PAYLOAD","DECAY_DATE":null,"APOAPSIS":"548.433","NORAD_CAT_ID":"45735","MEAN_MOTION":"15.06389053","ARG_OF_PERICENTER":"59.0322","REF_FRAME":"TEME","RA_OF_ASC_NODE":"164.4171","RCS_SIZE":"LARGE"},{"TLE_LINE1":"1 45736U 20038G   21306.89352213  .00000290  00000-0  38382-4 0  9992","OBJECT_TYPE":"PAYLOAD","TIME_SYSTEM":"UTC","EPOCH":"2021-11-02T21:26:40.312032","MEAN_MOTION_DDOT":"0.0000000000000","TLE_LINE2":"2 45736  53.0532 164.5108 0001321  88.7085 271.4055 15.06397166 76879","MEAN_ELEMENT_THEORY":"SGP4","MEAN_ANOMALY":"271.4055","LAUNCH_DATE":"2020-06-13","SEMIMAJOR_AXIS":"6925.357","ELEMENT_SET_NO":"999","ECCENTRICITY":"0.00013210","PERIAPSIS":"546.307","MEAN_MOTION":"15.06397166","RA_OF_ASC_NODE":"164.5108","RCS_SIZE":"LARGE","REF_FRAME":"TEME","ARG_OF_PERICENTER":"88.7085","DECAY_DATE":null,"APOAPSIS":"548.137","NORAD_CAT_ID":"45736","CLASSIFICATION_TYPE":"U","PERIOD":"95.592","BSTAR":"0.00003838200000","INCLINATION":"53.0532","MEAN_MOTION_DOT":"0.00000290","OBJECT_ID":"2020-038G","OBJECT_NAME":"STARLINK-1472","EPHEMERIS_TYPE":"0","COUNTRY_CODE":"US","GP_ID":"188772649","FILE":"3198350","REV_AT_EPOCH":"7687","CENTER_NAME":"EARTH","SITE":"AFETR"},{"PERIOD":"95.593","BSTAR":"0.00012856000000","CLASSIFICATION_TYPE":"U","COUNTRY_CODE":"US","MEAN_MOTION_DOT":"0.00001633","INCLINATION":"53.0523","OBJECT_ID":"2020-038J","OBJECT_NAME":"STARLINK-1474","EPHEMERIS_TYPE":"0","GP_ID":"188772901","SITE":"AFETR","FILE":"3198350","CENTER_NAME":"EARTH","REV_AT_EPOCH":"7687","OBJECT_TYPE":"PAYLOAD","TIME_SYSTEM":"UTC","EPOCH":"2021-11-02T21:42:36.203616","TLE_LINE1":"1 45738U 20038J   21306.90458569  .00001633  00000-0  12856-3 0  9996","ECCENTRICITY":"0.00017540","SEMIMAJOR_AXIS":"6925.374","ELEMENT_SET_NO":"999","PERIAPSIS":"546.024","MEAN_MOTION_DDOT":"0.0000000000000","TLE_LINE2":"2 45738  53.0523 164.4684 0001754  79.1680 280.9506 15.06391817 76877","MEAN_ELEMENT_THEORY":"SGP4","MEAN_ANOMALY":"280.9506","LAUNCH_DATE":"2020-06-13","RA_OF_ASC_NODE":"164.4684","RCS_SIZE":"LARGE","ARG_OF_PERICENTER":"79.1680","REF_FRAME":"TEME","MEAN_MOTION":"15.06391817","APOAPSIS":"548.453","NORAD_CAT_ID":"45738","DECAY_DATE":null},{"PERIAPSIS":"545.782","ELEMENT_SET_NO":"999","SEMIMAJOR_AXIS":"6925.325","ECCENTRICITY":"0.00020340","LAUNCH_DATE":"2020-06-13","MEAN_ANOMALY":"281.6238","MEAN_ELEMENT_THEORY":"SGP4","MEAN_MOTION_DDOT":"0.0000000000000","TLE_LINE2":"2 45739  53.0538 124.3949 0002034  78.4979 281.6238 15.06407633 77435","EPOCH":"2021-11-02T22:03:49.007808","TIME_SYSTEM":"UTC","OBJECT_TYPE":"PAYLOAD","TLE_LINE1":"1 45739U 20038K   21306.91931722  .00002264  00000-0  17084-3 0  9994","APOAPSIS":"548.599","NORAD_CAT_ID":"45739","DECAY_DATE":null,"ARG_OF_PERICENTER":"78.4979","REF_FRAME":"TEME","RA_OF_ASC_NODE":"124.3949","RCS_SIZE":"LARGE","MEAN_MOTION":"15.06407633","COUNTRY_CODE":"US","EPHEMERIS_TYPE":"0","OBJECT_ID":"2020-038K","OBJECT_NAME":"STARLINK-1475","MEAN_MOTION_DOT":"0.00002264","INCLINATION":"53.0538","BSTAR":"0.00017084000000","PERIOD":"95.592","CLASSIFICATION_TYPE":"U","SITE":"AFETR","REV_AT_EPOCH":"7743","CENTER_NAME":"EARTH","FILE":"3198350","GP_ID":"188773651"},{"MEAN_MOTION":"15.06396241","ARG_OF_PERICENTER":"73.3180","REF_FRAME":"TEME","RCS_SIZE":"LARGE","RA_OF_ASC_NODE":"167.1204","DECAY_DATE":null,"APOAPSIS":"548.457","NORAD_CAT_ID":"45740","TLE_LINE1":"1 45740U 20038L   21306.31483056  .00000829  00000-0  74569-4 0  9999","OBJECT_TYPE":"PAYLOAD","TIME_SYSTEM":"UTC","EPOCH":"2021-11-02T07:33:21.360384","LAUNCH_DATE":"2020-06-13","MEAN_MOTION_DDOT":"0.0000000000000","TLE_LINE2":"2 45740  53.0535 167.1204 0001779  73.3180 286.8004 15.06396241 76783","MEAN_ANOMALY":"286.8004","MEAN_ELEMENT_THEORY":"SGP4","PERIAPSIS":"545.993","ELEMENT_SET_NO":"999","SEMIMAJOR_AXIS":"6925.360","ECCENTRICITY":"0.00017790","GP_ID":"188736674","REV_AT_EPOCH":"7678","CENTER_NAME":"EARTH","FILE":"3197731","SITE":"AFETR","CLASSIFICATION_TYPE":"U","BSTAR":"0.00007456900000","PERIOD":"95.592","OBJECT_NAME":"STARLINK-1479","OBJECT_ID":"2020-038L","EPHEMERIS_TYPE":"0","INCLINATION":"53.0535","MEAN_MOTION_DOT":"0.00000829","COUNTRY_CODE":"US"},{"SITE":"AFETR","CENTER_NAME":"EARTH","REV_AT_EPOCH":"7688","FILE":"3198350","GP_ID":"188772150","COUNTRY_CODE":"US","EPHEMERIS_TYPE":"0","OBJECT_NAME":"STARLINK-1480","OBJECT_ID":"2020-038M","INCLINATION":"53.0538","MEAN_MOTION_DOT":"-0.00000509","BSTAR":"-0.00001524500000","PERIOD":"95.592","CLASSIFICATION_TYPE":"U","APOAPSIS":"548.244","NORAD_CAT_ID":"45741","DECAY_DATE":null,"ARG_OF_PERICENTER":"76.2708","REF_FRAME":"TEME","RA_OF_ASC_NODE":"164.5711","RCS_SIZE":"LARGE","MEAN_MOTION":"15.06396504","PERIAPSIS":"546.205","SEMIMAJOR_AXIS":"6925.359","ELEMENT_SET_NO":"999","ECCENTRICITY":"0.00014720","LAUNCH_DATE":"2020-06-13","MEAN_ELEMENT_THEORY":"SGP4","MEAN_ANOMALY":"283.8445","MEAN_MOTION_DDOT":"0.0000000000000","TLE_LINE2":"2 45741  53.0538 164.5711 0001472  76.2708 283.8445 15.06396504 76888","EPOCH":"2021-11-02T21:10:45.509088","OBJECT_TYPE":"PAYLOAD","TIME_SYSTEM":"UTC","TLE_LINE1":"1 45741U 20038M   21306.88247117 -.00000509  00000-0 -15245-4 0  9991"}];
